STARLINK-1828
1 46725U 20073BH  26090.83335647  .00084440  00000+0  11043-2 0  9992
2 46725  53.0519 129.2662 0005223  50.0481 320.1794 15.57919828  5902
